FLOCK 4G-8              
1 62613U 25009E   26068.72381419  .00013559  00000+0  50438-3 0  9996
2 62613  97.4045 151.2834 0003050 315.2538  44.8455 15.27623414 63721
STARLINK-34201          
1 64077U 25107P   26068.40500292  .00042706  00000+0  15512-2 0  9997
2 64077  42.9991 203.4388 0003357 288.4495  71.5991 15.27602563 44980
